ONEWEB-0427             
1 50499U 21132AG  25104.11743811  .00000009  00000+0 -91272-5 0  9999
2 50499  87.9109  60.7216 0002029  89.0940 271.0424 13.18685607166365
ONEWEB-0429             
1 50500U 21132AH  25103.57365286  .00000080  00000+0  17087-3 0  9995
2 50500  87.9115  60.8545 0001884  77.7597 282.3746 13.18687639164964
ONEWEB-0430             
1 50501U 21132AJ  25104.16960672  .00000074  00000+0  15489-3 0  9999
2 50501  87.9113  60.7302 0001657  81.7540 278.3780 13.18685127166374
ONEWEB-0432             
1 50502U 21132AK  25103.59421090  .00000084  00000+0  18121-3 0  9999
2 50502  87.9111  60.8341 0001819 111.6382 248.4944 13.18685554164961
ONEWEB-0440             
1 50503U 21132AL  25103.58156465  .00000078  00000+0  16396-3 0  9995
2 50503  87.9113  60.8347 0002274  74.2529 285.8854 13.18685489164954
ONEWEB-0450             
1 50504U 21132AM  25103.87886942  .00000059  00000+0  11693-3 0  9992
2 50504  87.9114  60.8040 0001763  73.0205 287.1121 13.18688643166315
ONEWEB-0410             
1 51622U 22012A   25104.25386478  .00000017  00000+0  10239-4 0  9994
2 51622  87.9010  91.2652 0003157 106.8167 253.3311 13.17647361158509
ONEWEB-0411             
1 51623U 22012B   25103.57844146  .00000668  00000+0  18784-2 0  9993
2 51623  87.8800 121.9164 0001412  97.6407 262.4881 13.10371114153029
